KUIPER-00071            
1 64818U 25151C   26025.57195103  .00000487  00000+0  93214-4 0  9998
2 64818  51.9014 133.7451 0006942  93.5618 266.6138 14.79839590 28889
KUIPER-00072            
1 64819U 25151D   26025.61517348  .00009367  00000+0  12034-2 0  9998
2 64819  51.8971 113.4255 0000575  63.9416 296.1607 14.81738641 29171
KUIPER-00073            
1 64820U 25151E   26025.53818889  .00006038  00000+0  82028-3 0  9998
2 64820  51.8997 133.8886 0003273 134.9055 225.2173 14.79939301 30067
KUIPER-00074            
1 64821U 25151F   26025.48406570  .00009608  00000+0  12850-2 0  9994
2 64821  51.8987 121.6450 0010852 129.7237 230.4683 14.79987362 29044
KUIPER-00075            
1 64822U 25151G   26025.38887195  .00076594  00000+0  18762-2 0  9996
2 64822  51.8741  72.3026 0003363 111.9309 248.2037 15.40061581 29726
KUIPER-00076            
1 64823U 25151H   26025.54872410  .00009426  00000+0  12600-2 0  9994
2 64823  51.8997 123.8512 0001681 154.1176 205.9871 14.80055534 29027
KUIPER-00077            
1 64824U 25151J   26025.54363754  .00013879  00000+0  18458-2 0  9995
2 64824  51.8986 128.8845 0004242 104.3104 255.8330 14.79931021 28951
KUIPER-00078            
1 64825U 25151K   26025.64761433  .00008550  00000+0  11501-2 0  9995
2 64825  51.8986 125.9171 0001748 166.2810 193.8200 14.79898619 29000
